start=new Date('2023-04-25T00:00:00.000Z').valueOf();
sats=[{"DECAY_DATE":null,"FILE":"3893330","GP_ID":"230701021","BSTAR":"0.00022509000000","OBJECT_TYPE":"PAYLOAD","NORAD_CAT_ID":"53799","EPHEMERIS_TYPE":"0","MEAN_MOTION_DDOT":"0.0000000000000","OBJECT_ID":"2022-111AC","REV_AT_EPOCH":"3528","TLE_LINE2":"2 53799  53.2162 298.2492 0000918 100.2319 259.8776 15.08859622 35282","REF_FRAME":"TEME","APOAPSIS":"540.320","MEAN_ANOMALY":"259.8776","COUNTRY_CODE":"US","ECCENTRICITY":"0.00009180","TLE_LINE1":"1 53799U 22111AC  23114.55882310  .00003298  00000-0  22509-3 0  9996","SEMIMAJOR_AXIS":"6917.820","ELEMENT_SET_NO":"999","LAUNCH_DATE":"2022-09-11","CLASSIFICATION_TYPE":"U","PERIAPSIS":"539.050","ARG_OF_PERICENTER":"100.2319","MEAN_ELEMENT_THEORY":"SGP4","RA_OF_ASC_NODE":"298.2492","SITE":"AFETR","TIME_SYSTEM":"UTC","CENTER_NAME":"EARTH","INCLINATION":"53.2162","OBJECT_NAME":"STARLINK-4710","MEAN_MOTION":"15.08859622","EPOCH":"2023-04-24T13:24:42.315840","MEAN_MOTION_DOT":"0.00003298","PERIOD":"95.436","RCS_SIZE":"LARGE"},{"RA_OF_ASC_NODE":"297.3832","SITE":"AFETR","TIME_SYSTEM":"UTC","CENTER_NAME":"EARTH","ARG_OF_PERICENTER":"83.3816","PERIAPSIS":"538.753","MEAN_ELEMENT_THEORY":"SGP4","PERIOD":"95.437","RCS_SIZE":"LARGE","MEAN_MOTION":"15.08856615","OBJECT_NAME":"STARLINK-4720","INCLINATION":"53.2158","EPOCH":"2023-04-24T18:16:09.973056","MEAN_MOTION_DOT":"0.00001578","MEAN_MOTION_DDOT":"0.0000000000000","TLE_LINE2":"2 53800  53.2158 297.3832 0001361  83.3816 276.7331 15.08856615 34502","OBJECT_ID":"2022-111AD","REV_AT_EPOCH":"3450","APOAPSIS":"540.636","REF_FRAME":"TEME","DECAY_DATE":null,"FILE":"3893518","GP_ID":"230706605","OBJECT_TYPE":"PAYLOAD","BSTAR":"0.00011718000000","EPHEMERIS_TYPE":"0","NORAD_CAT_ID":"53800","SEMIMAJOR_AXIS":"6917.830","ELEMENT_SET_NO":"999","LAUNCH_DATE":"2022-09-11","CLASSIFICATION_TYPE":"U","MEAN_ANOMALY":"276.7331","COUNTRY_CODE":"US","TLE_LINE1":"1 53800U 22111AD  23114.76122654  .00001578  00000-0  11718-3 0  9999","ECCENTRICITY":"0.00013610"},{"OBJECT_TYPE":"PAYLOAD","NORAD_CAT_ID":"53801","BSTAR":"0.00080222000000","EPHEMERIS_TYPE":"0","GP_ID":"230700770","DECAY_DATE":null,"FILE":"3893330","REF_FRAME":"TEME","APOAPSIS":"540.253","REV_AT_EPOCH":"3527","OBJECT_ID":"2022-111AE","TLE_LINE2":"2 53801  53.2154 298.4996 0000855  86.9962 273.1128 15.08867505 35270","MEAN_MOTION_DDOT":"0.0000000000000","ECCENTRICITY":"0.00008550","TLE_LINE1":"1 53801U 22111AE  23114.48522413  .00012512  00000-0  80222-3 0  9992","COUNTRY_CODE":"US","MEAN_ANOMALY":"273.1128","CLASSIFICATION_TYPE":"U","LAUNCH_DATE":"2022-09-11","ELEMENT_SET_NO":"999","SEMIMAJOR_AXIS":"6917.796","PERIAPSIS":"539.070","MEAN_ELEMENT_THEORY":"SGP4","ARG_OF_PERICENTER":"86.9962","CENTER_NAME":"EARTH","TIME_SYSTEM":"UTC","SITE":"AFETR","RA_OF_ASC_NODE":"298.4996","MEAN_MOTION_DOT":"0.00012512","EPOCH":"2023-04-24T11:38:43.364832","INCLINATION":"53.2154","OBJECT_NAME":"STARLINK-4715","MEAN_MOTION":"15.08867505","RCS_SIZE":"LARGE","PERIOD":"95.436"},{"MEAN_ANOMALY":"268.9871","ECCENTRICITY":"0.00012000","TLE_LINE1":"1 53802U 22111AF  23114.48890837  .00018778  00000-0  11936-2 0  9996","COUNTRY_CODE":"US","ELEMENT_SET_NO":"999","SEMIMAJOR_AXIS":"6917.771","LAUNCH_DATE":"2022-09-11","CLASSIFICATION_TYPE":"U","FILE":"3893330","DECAY_DATE":null,"BSTAR":"0.00119360000000","OBJECT_TYPE":"PAYLOAD","NORAD_CAT_ID":"53802","EPHEMERIS_TYPE":"0","GP_ID":"230701272","MEAN_MOTION_DDOT":"0.0000000000000","APOAPSIS":"540.466","REF_FRAME":"TEME","OBJECT_ID":"2022-111AF","REV_AT_EPOCH":"3527","TLE_LINE2":"2 53802  53.2145 298.5250 0001200  91.1258 268.9871 15.08875816 35277","INCLINATION":"53.2145","OBJECT_NAME":"STARLINK-4726","MEAN_MOTION":"15.08875816","MEAN_MOTION_DOT":"0.00018778","EPOCH":"2023-04-24T11:44:01.683168","PERIOD":"95.435","RCS_SIZE":"LARGE","PERIAPSIS":"538.806","MEAN_ELEMENT_THEORY":"SGP4","ARG_OF_PERICENTER":"91.1258","SITE":"AFETR","RA_OF_ASC_NODE":"298.5250","CENTER_NAME":"EARTH","TIME_SYSTEM":"UTC"},{"ARG_OF_PERICENTER":"89.9565","PERIAPSIS":"533.693","MEAN_ELEMENT_THEORY":"SGP4","CENTER_NAME":"EARTH","TIME_SYSTEM":"UTC","SITE":"AFETR","RA_OF_ASC_NODE":"283.4608","MEAN_MOTION_DOT":"-0.00033839","EPOCH":"2023-04-24T14:00:01.000224","MEAN_MOTION":"15.10493981","INCLINATION":"53.2153","OBJECT_NAME":"STARLINK-4727","RCS_SIZE":"LARGE","PERIOD":"95.333","OBJECT_TYPE":"PAYLOAD","EPHEMERIS_TYPE":"0","BSTAR":"-0.00202360000000","NORAD_CAT_ID":"53803","GP_ID":"230701522","FILE":"3893330","DECAY_DATE":null,"REF_FRAME":"TEME","APOAPSIS":"535.695","TLE_LINE2":"2 53803  53.2153 283.4608 0001448  89.9565 249.6211 15.10493981  1300","OBJECT_ID":"2022-111AG","REV_AT_EPOCH":"130","MEAN_MOTION_DDOT":"0.0000000000000","TLE_LINE1":"1 53803U 22111AG  23114.58334491 -.00033839  00000-0 -20236-2 0  9997","ECCENTRICITY":"0.00014480","COUNTRY_CODE":"US","MEAN_ANOMALY":"249.6211","LAUNCH_DATE":"2022-09-11","CLASSIFICATION_TYPE":"U","ELEMENT_SET_NO":"999","SEMIMAJOR_AXIS":"6912.829"},{"NORAD_CAT_ID":"53804","OBJECT_TYPE":"PAYLOAD","BSTAR":"0.00024827000000","EPHEMERIS_TYPE":"0","GP_ID":"230706598","FILE":"3893517","DECAY_DATE":null,"REF_FRAME":"TEME","APOAPSIS":"540.716","TLE_LINE2":"2 53804  53.2178 292.2864 0001517  83.6268 276.4896 15.08865798 34576","REV_AT_EPOCH":"3457","OBJECT_ID":"2022-111AH","MEAN_MOTION_DDOT":"0.0000000000000","TLE_LINE1":"1 53804U 22111AH  23114.74605481  .00003668  00000-0  24827-3 0  9992","ECCENTRICITY":"0.00015170","COUNTRY_CODE":"US","MEAN_ANOMALY":"276.4896","LAUNCH_DATE":"2022-09-11","CLASSIFICATION_TYPE":"U","ELEMENT_SET_NO":"999","SEMIMAJOR_AXIS":"6917.802","PERIAPSIS":"538.617","MEAN_ELEMENT_THEORY":"SGP4","ARG_OF_PERICENTER":"83.6268","CENTER_NAME":"EARTH","TIME_SYSTEM":"UTC","SITE":"AFETR","RA_OF_ASC_NODE":"292.2864","MEAN_MOTION_DOT":"0.00003668","EPOCH":"2023-04-24T17:54:19.135584","MEAN_MOTION":"15.08865798","INCLINATION":"53.2178","OBJECT_NAME":"STARLINK-4729","RCS_SIZE":"LARGE","PERIOD":"95.436"},{"PERIOD":"95.435","RCS_SIZE":"LARGE","MEAN_MOTION":"15.08883003","OBJECT_NAME":"STARLINK-4763","INCLINATION":"53.2169","EPOCH":"2023-04-24T12:09:53.835840","MEAN_MOTION_DOT":"0.00034752","RA_OF_ASC_NODE":"283.6537","SITE":"AFETR","TIME_SYSTEM":"UTC","CENTER_NAME":"EARTH","MEAN_ELEMENT_THEORY":"SGP4","PERIAPSIS":"538.776","ARG_OF_PERICENTER":"87.8153","SEMIMAJOR_AXIS":"6917.749","ELEMENT_SET_NO":"999","LAUNCH_DATE":"2022-09-11","CLASSIFICATION_TYPE":"U","MEAN_ANOMALY":"272.2978","COUNTRY_CODE":"US","TLE_LINE1":"1 53805U 22111AJ  23114.50687310  .00034752  00000-0  21883-2 0  9994","ECCENTRICITY":"0.00012110","MEAN_MOTION_DDOT":"0.0000000000000","TLE_LINE2":"2 53805  53.2169 283.6537 0001211  87.8153 272.2978 15.08883003 34673","OBJECT_ID":"2022-111AJ","REV_AT_EPOCH":"3467","APOAPSIS":"540.452","REF_FRAME":"TEME","FILE":"3893517","DECAY_DATE":null,"GP_ID":"230707094","OBJECT_TYPE":"PAYLOAD","BSTAR":"0.00218830000000","NORAD_CAT_ID":"53805","EPHEMERIS_TYPE":"0"},{"MEAN_ANOMALY":"285.9169","COUNTRY_CODE":"US","TLE_LINE1":"1 53806U 22111AK  23114.74971277  .00013704  00000-0  87641-3 0  9998","ECCENTRICITY":"0.00011960","SEMIMAJOR_AXIS":"6917.751","ELEMENT_SET_NO":"999","LAUNCH_DATE":"2022-09-11","CLASSIFICATION_TYPE":"U","FILE":"3893517","DECAY_DATE":null,"GP_ID":"230706590","OBJECT_TYPE":"PAYLOAD","BSTAR":"0.00087641000000","NORAD_CAT_ID":"53806","EPHEMERIS_TYPE":"0","MEAN_MOTION_DDOT":"0.0000000000000","TLE_LINE2":"2 53806  53.2163 282.3256 0001196  74.1955 285.9169 15.08882313 34714","REV_AT_EPOCH":"3471","OBJECT_ID":"2022-111AK","APOAPSIS":"540.443","REF_FRAME":"TEME","MEAN_MOTION":"15.08882313","INCLINATION":"53.2163","OBJECT_NAME":"STARLINK-4768","EPOCH":"2023-04-24T17:59:35.183328","MEAN_MOTION_DOT":"0.00013704","PERIOD":"95.435","RCS_SIZE":"LARGE","PERIAPSIS":"538.789","ARG_OF_PERICENTER":"74.1955","MEAN_ELEMENT_THEORY":"SGP4","RA_OF_ASC_NODE":"282.3256","SITE":"AFETR","TIME_SYSTEM":"UTC","CENTER_NAME":"EARTH"},{"LAUNCH_DATE":"2022-09-19","CLASSIFICATION_TYPE":"U","SEMIMAJOR_AXIS":"6899.674","ELEMENT_SET_NO":"999","COUNTRY_CODE":"US","ECCENTRICITY":"0.00044250","TLE_LINE1":"1 53818U 22114A   23113.96394466  .00051876  00000-0  27562-2 0  9993","MEAN_ANOMALY":"192.4714","OBJECT_ID":"2022-114A","REV_AT_EPOCH":"3432","TLE_LINE2":"2 53818  53.2176 339.9026 0004425 167.6390 192.4714 15.14815962 34322","APOAPSIS":"524.592","REF_FRAME":"TEME","MEAN_MOTION_DDOT":"0.0000000000000","GP_ID":"230701523","NORAD_CAT_ID":"53818","OBJECT_TYPE":"PAYLOAD","BSTAR":"0.00275620000000","EPHEMERIS_TYPE":"0","FILE":"3893330","DECAY_DATE":null,"RCS_SIZE":"LARGE","PERIOD":"95.061","EPOCH":"2023-04-23T23:08:04.818624","MEAN_MOTION_DOT":"0.00051876","INCLINATION":"53.2176","OBJECT_NAME":"STARLINK-4749","MEAN_MOTION":"15.14815962","TIME_SYSTEM":"UTC","CENTER_NAME":"EARTH","RA_OF_ASC_NODE":"339.9026","SITE":"AFETR","ARG_OF_PERICENTER":"167.6390","PERIAPSIS":"518.486","MEAN_ELEMENT_THEORY":"SGP4"},{"LAUNCH_DATE":"2022-09-19","CLASSIFICATION_TYPE":"U","ELEMENT_SET_NO":"999","SEMIMAJOR_AXIS":"6917.785","TLE_LINE1":"1 53819U 22114B   23114.75116027  .00003911  00000-0  26342-3 0  9990","ECCENTRICITY":"0.00008800","COUNTRY_CODE":"US","MEAN_ANOMALY":"264.7316","APOAPSIS":"540.258","REF_FRAME":"TEME","TLE_LINE2":"2 53819  53.2176 337.6699 0000880  95.3776 264.7316 15.08871323 33786","REV_AT_EPOCH":"3378","OBJECT_ID":"2022-114B","MEAN_MOTION_DDOT":"0.0000000000000","OBJECT_TYPE":"PAYLOAD","EPHEMERIS_TYPE":"0","BSTAR":"0.00026342000000","NORAD_CAT_ID":"53819","GP_ID":"230706626","FILE":"3893531","DECAY_DATE":null,"RCS_SIZE":"LARGE","PERIOD":"95.436","MEAN_MOTION_DOT":"0.00003911","EPOCH":"2023-04-24T18:01:40.247328","MEAN_MOTION":"15.08871323","OBJECT_NAME":"STARLINK-4738","INCLINATION":"53.2176","CENTER_NAME":"EARTH","TIME_SYSTEM":"UTC","SITE":"AFETR","RA_OF_ASC_NODE":"337.6699","ARG_OF_PERICENTER":"95.3776","PERIAPSIS":"539.041","MEAN_ELEMENT_THEORY":"SGP4"}];
